{
  "type": "FeatureCollection",
  "features": [
    {
      "type": "Feature",
      "properties": {
        "norad_id": 41890,
        "name": "CYGFM07",
        "group": "weather",
        "lat": 2.4679973549352066,
        "lon": 14.104485006205682,
        "alt_km": 419.5790970820917,
        "timestamp": "2025-12-14T09:36:22.677612+00:00",
        "meta_object_name": "CYGFM07",
        "meta_object_id": "2016-078G",
        "meta_epoch": "2025-12-13T10:24:08.339904",
        "meta_mean_motion": 15.50044004,
        "meta_eccentricity": 0.0009911,
        "meta_inclination": 34.9485,
        "meta_ra_of_asc_node": 16.9056,
        "meta_arg_of_pericenter": 221.9296,
        "meta_mean_anomaly": 138.0668,
        "meta_ephemeris_type": 0,
        "meta_classification_type": "U",
        "meta_norad_cat_id": 41890,
        "meta_element_set_no": 999,
        "meta_rev_at_epoch": 50006,
        "meta_bstar": 0.00055257026,
        "meta_mean_motion_dot": 0.00032139,
        "meta_mean_motion_ddot": 0,
        "tle_line1": "1 41890U 16078G   25347.43342986  .00032139  00000+0  55257-3 0  9998",
        "tle_line2": "2 41890  34.9485  16.9056 0009911 221.9296 138.0668 15.50044004500061"
      },
      "geometry": {
        "type": "Point",
        "coordinates": [
          14.104485006205682,
          2.4679973549352066
        ]
      }
    },
    {
      "type": "Feature",
      "properties": {
        "norad_id": 41891,
        "name": "CYGFM03",
        "group": "weather",
        "lat": -10.415293541992478,
        "lon": -152.25180285585407,
        "alt_km": 410.97208516479986,
        "timestamp": "2025-12-14T09:36:22.677623+00:00",
        "meta_object_name": "CYGFM03",
        "meta_object_id": "2016-078H",
        "meta_epoch": "2025-12-13T12:39:32.533632",
        "meta_mean_motion": 15.49943028,
        "meta_eccentricity": 0.00093322,
        "meta_inclination": 34.944,
        "meta_ra_of_asc_node": 18.2079,
        "meta_arg_of_pericenter": 210.4978,
        "meta_mean_anomaly": 149.5202,
        "meta_ephemeris_type": 0,
        "meta_classification_type": "U",
        "meta_norad_cat_id": 41891,
        "meta_element_set_no": 999,
        "meta_rev_at_epoch": 50005,
        "meta_bstar": 0.00041382045,
        "meta_mean_motion_dot": 0.0002394,
        "meta_mean_motion_ddot": 0,
        "tle_line1": "1 41891U 16078H   25347.52745988  .00023940  00000+0  41382-3 0  9992",
        "tle_line2": "2 41891  34.9440  18.2079 0009332 210.4978 149.5202 15.49943028500052"
      },
      "geometry": {
        "type": "Point",
        "coordinates": [
          -152.25180285585407,
          -10.415293541992478
        ]
      }
    },
    {
      "type": "Feature",
      "properties": {
        "norad_id": 43010,
        "name": "FENGYUN 3D",
        "group": "weather",
        "lat": -29.256835512220785,
        "lon": 129.64784621959336,
        "alt_km": 831.6706083784002,
        "timestamp": "2025-12-14T09:36:22.677633+00:00",
        "meta_object_name": "FENGYUN 3D",
        "meta_object_id": "2017-072A",
        "meta_epoch": "2025-12-13T15:42:27.712224",
        "meta_mean_motion": 14.19684418,
        "meta_eccentricity": 9.643e-05,
        "meta_inclination": 98.9893,
        "meta_ra_of_asc_node": 313.9783,
        "meta_arg_of_pericenter": 178.5734,
        "meta_mean_anomaly": 181.5444,
        "meta_ephemeris_type": 0,
        "meta_classification_type": "U",
        "meta_norad_cat_id": 43010,
        "meta_element_set_no": 999,
        "meta_rev_at_epoch": 41866,
        "meta_bstar": 9.3328079e-05,
        "meta_mean_motion_dot": 1.51e-06,
        "meta_mean_motion_ddot": 0,
        "tle_line1": "1 43010U 17072A   25347.65448741  .00000151  00000+0  93328-4 0  9990",
        "tle_line2": "2 43010  98.9893 313.9783 0000964 178.5734 181.5444 14.19684418418662"
      },
      "geometry": {
        "type": "Point",
        "coordinates": [
          129.64784621959336,
          -29.256835512220785
        ]
      }
    },
    {
      "type": "Feature",
      "properties": {
        "norad_id": 43013,
        "name": "NOAA 20 (JPSS-1)",
        "group": "weather",
        "lat": 0.7521987895925962,
        "lon": -75.43731343696061,
        "alt_km": 829.5833678488289,
        "timestamp": "2025-12-14T09:36:22.677645+00:00",
        "meta_object_name": "NOAA 20 (JPSS-1)",
        "meta_object_id": "2017-073A",
        "meta_epoch": "2025-12-13T16:41:10.177152",
        "meta_mean_motion": 14.19526035,
        "meta_eccentricity": 0.0002139,
        "meta_inclination": 98.7599,
        "meta_ra_of_asc_node": 283.9815,
        "meta_arg_of_pericenter": 86.0085,
        "meta_mean_anomaly": 274.1335,
        "meta_ephemeris_type": 0,
        "meta_classification_type": "U",
        "meta_norad_cat_id": 43013,
        "meta_element_set_no": 999,
        "meta_rev_at_epoch": 41815,
        "meta_bstar": 8.4766976e-05,
        "meta_mean_motion_dot": 1.35e-06,
        "meta_mean_motion_ddot": 0,
        "tle_line1": "1 43013U 17073A   25347.69525668  .00000135  00000+0  84767-4 0  9991",
        "tle_line2": "2 43013  98.7599 283.9815 0002139  86.0085 274.1335 14.19526035418158"
      },
      "geometry": {
        "type": "Point",
        "coordinates": [
          -75.43731343696061,
          0.7521987895925962
        ]
      }
    },
    {
      "type": "Feature",
      "properties": {
        "norad_id": 43226,
        "name": "GOES 17",
        "group": "weather",
        "lat": 0.3550424359022125,
        "lon": 137.88658026440095,
        "alt_km": 35796.54283899876,
        "timestamp": "2025-12-14T09:36:22.677657+00:00",
        "meta_object_name": "GOES 17",
        "meta_object_id": "2018-022A",
        "meta_epoch": "2025-12-13T14:44:05.876160",
        "meta_mean_motion": 1.0027174,
        "meta_eccentricity": 0.00032344,
        "meta_inclination": 0.4622,
        "meta_ra_of_asc_node": 89.1044,
        "meta_arg_of_pericenter": 188.7594,
        "meta_mean_anomaly": 296.2116,
        "meta_ephemeris_type": 0,
        "meta_classification_type": "U",
        "meta_norad_cat_id": 43226,
        "meta_element_set_no": 999,
        "meta_rev_at_epoch": 2856,
        "meta_bstar": 0,
        "meta_mean_motion_dot": -1.67e-06,
        "meta_mean_motion_ddot": 0,
        "tle_line1": "1 43226U 18022A   25347.61395690 -.00000167  00000+0  00000+0 0  9993",
        "tle_line2": "2 43226   0.4622  89.1044 0003234 188.7594 296.2116  1.00271740 28563"
      },
      "geometry": {
        "type": "Point",
        "coordinates": [
          137.88658026440095,
          0.3550424359022125
        ]
      }
    },
    {
      "type": "Feature",
      "properties": {
        "norad_id": 43491,
        "name": "FENGYUN 2H",
        "group": "weather",
        "lat": -1.8330048004089703,
        "lon": -53.23693969269343,
        "alt_km": 35780.34767379887,
        "timestamp": "2025-12-14T09:36:22.677677+00:00",
        "meta_object_name": "FENGYUN 2H",
        "meta_object_id": "2018-050A",
        "meta_epoch": "2025-12-13T17:21:38.913120",
        "meta_mean_motion": 1.00271249,
        "meta_eccentricity": 0.00027438,
        "meta_inclination": 2.5537,
        "meta_ra_of_asc_node": 81.3191,
        "meta_arg_of_pericenter": 167.3086,
        "meta_mean_anomaly": 173.794,
        "meta_ephemeris_type": 0,
        "meta_classification_type": "U",
        "meta_norad_cat_id": 43491,
        "meta_element_set_no": 999,
        "meta_rev_at_epoch": 2757,
        "meta_bstar": 0,
        "meta_mean_motion_dot": -1.15e-06,
        "meta_mean_motion_ddot": 0,
        "tle_line1": "1 43491U 18050A   25347.72336705 -.00000115  00000+0  00000+0 0  9995",
        "tle_line2": "2 43491   2.5537  81.3191 0002743 167.3086 173.7940  1.00271249 27573"
      },
      "geometry": {
        "type": "Point",
        "coordinates": [
          -53.23693969269343,
          -1.8330048004089703
        ]
      }
    },
    {
      "type": "Feature",
      "properties": {
        "norad_id": 43689,
        "name": "METOP-C",
        "group": "weather",
        "lat": 25.964366713146177,
        "lon": -129.58280745784924,
        "alt_km": 819.7979899145821,
        "timestamp": "2025-12-14T09:36:22.677690+00:00",
        "meta_object_name": "METOP-C",
        "meta_object_id": "2018-087A",
        "meta_epoch": "2025-12-13T15:59:34.205568",
        "meta_mean_motion": 14.21484873,
        "meta_eccentricity": 0.00012051,
        "meta_inclination": 98.693,
        "meta_ra_of_asc_node": 45.422,
        "meta_arg_of_pericenter": 37.7199,
        "meta_mean_anomaly": 322.4063,
        "meta_ephemeris_type": 0,
        "meta_classification_type": "U",
        "meta_norad_cat_id": 43689,
        "meta_element_set_no": 999,
        "meta_rev_at_epoch": 36847,
        "meta_bstar": 0.00011677949,
        "meta_mean_motion_dot": 2.12e-06,
        "meta_mean_motion_ddot": 0,
        "tle_line1": "1 43689U 18087A   25347.66636812  .00000212  00000+0  11678-3 0  9993",
        "tle_line2": "2 43689  98.6930  45.4220 0001205  37.7199 322.4063 14.21484873368478"
      },
      "geometry": {
        "type": "Point",
        "coordinates": [
          -129.58280745784924,
          25.964366713146177
        ]
      }
    }
  ]
}